COMMENT,ORIGINATOR,NORAD_CAT_ID,OBJECT_NAME,OBJECT_TYPE,CLASSIFICATION_TYPE,INTLDES,EPOCH,EPOCH_MICROSECONDS,MEAN_MOTION,ECCENTRICITY,INCLINATION,RA_OF_ASC_NODE,ARG_OF_PERICENTER,MEAN_ANOMALY,EPHEMERIS_TYPE,ELEMENT_SET_NO,REV_AT_EPOCH,BSTAR,MEAN_MOTION_DOT,MEAN_MOTION_DDOT,FILE,TLE_LINE0,TLE_LINE1,TLE_LINE2,OBJECT_ID,OBJECT_NUMBER,SEMIMAJOR_AXIS,PERIOD,APOGEE,PERIGEE,DECAYED
"GENERATED VIA SPACETRACK.ORG API","18 SPCS","55099","SPACEBEE-156","PAYLOAD","U","23001CU","2023-03-02 09:45:48","519648","15.15678124","0.0016207","97.4923","122.6913","17.7998","342.3799","0","999","890","0.00088093","0.00016779","0","3849487","0 SPACEBEE-156","1 55099U 23001CU  23061.40681157  .00016779  00000-0  88093-3 0  9999","2 55099  97.4923 122.6913 0016207  17.7998 342.3799 15.15678124  8909","2023-001CU","55099","6897.058","95.007","530.101","507.745","0"
"GENERATED VIA SPACETRACK.ORG API","18 SPCS","55099","SPACEBEE-156","PAYLOAD","U","23001CU","2023-03-03 09:31:47","683488","15.1572602","0.0016236","97.4923","123.6684","13.7799","346.3874","0","999","905","0.0013626","0.00026058","0","3850027","0 SPACEBEE-156","1 55099U 23001CU  23062.39707967  .00026058  00000-0  13626-2 0  9996","2 55099  97.4923 123.6684 0016236  13.7799 346.3874 15.15726020  9056","2023-001CU","55099","6896.912","95.004","529.975","507.579","0"
"GENERATED VIA SPACETRACK.ORG API","18 SPCS","55099","SPACEBEE-156","PAYLOAD","U","23001CU","2023-03-03 09:31:47","683488","15.1572602","0.0016236","97.4923","123.6684","13.7799","346.3874","0","999","905","0.0013626","0.00026058","0","3850163","0 SPACEBEE-156","1 55099U 23001CU  23062.39707967  .00026058  00000-0  13626-2 0  9996","2 55099  97.4923 123.6684 0016236  13.7799 346.3874 15.15726020  9056","2023-001CU","55099","6896.912","95.004","529.975","507.579","0"
"GENERATED VIA SPACETRACK.ORG API","18 SPCS","55099","SPACEBEE-156","PAYLOAD","U","23001CU","2023-03-04 02:57:29","231136","15.1576514","0.001609","97.4926","124.3856","11.5091","348.6506","0","999","916","0.0014167","0.00027127","0","3851072","0 SPACEBEE-156","1 55099U 23001CU  23063.12325499  .00027127  00000-0  14167-2 0  9993","2 55099  97.4926 124.3856 0016090  11.5091 348.6506 15.15765140  9162","2023-001CU","55099","6896.794","95.002","529.756","507.562","0"
"GENERATED VIA SPACETRACK.ORG API","18 SPCS","55099","SPACEBEE-156","PAYLOAD","U","23001CU","2023-03-04 14:02:54","724704","15.15794729","0.0015987","97.4926","124.8412","10.0049","350.1499","0","999","923","0.0015489","0.00029699","0","3851068","0 SPACEBEE-156","1 55099U 23001CU  23063.58535561  .00029699  00000-0  15489-2 0  9990","2 55099  97.4926 124.8412 0015987  10.0049 350.1499 15.15794729  9238","2023-001CU","55099","6896.704","95.000","529.595","507.543","0"
"GENERATED VIA SPACETRACK.ORG API","18 SPCS","55099","SPACEBEE-156","PAYLOAD","U","23001CU","2023-03-04 17:13:01","908480","15.15798528","0.0015972","97.4926","124.9716","9.6127","350.5408","0","999","925","0.0013248","0.0002538","0","3851350","0 SPACEBEE-156","1 55099U 23001CU  23063.71738320  .00025380  00000-0  13248-2 0  9997","2 55099  97.4926 124.9716 0015972   9.6127 350.5408 15.15798528  9258","2023-001CU","55099","6896.692","94.999","529.573","507.542","0"
"GENERATED VIA SPACETRACK.ORG API","18 SPCS","55099","SPACEBEE-156","PAYLOAD","U","23001CU","2023-03-05 02:43:23","124576","15.1581976","0.0015981","97.4924","125.3625","8.2023","351.9468","0","999","931","0.0013489","0.0002586","0","3851939","0 SPACEBEE-156","1 55099U 23001CU  23064.11346209  .00025860  00000-0  13489-2 0  9993","2 55099  97.4924 125.3625 0015981   8.2023 351.9468 15.15819760  9310","2023-001CU","55099","6896.628","94.998","529.514","507.471","0"
"GENERATED VIA SPACETRACK.ORG API","18 SPCS","55099","SPACEBEE-156","PAYLOAD","U","23001CU","2023-03-05 02:43:23","124576","15.1581976","0.0015981","97.4924","125.3625","8.2023","351.9468","0","999","931","0.0013489","0.0002586","0","3852246","0 SPACEBEE-156","1 55099U 23001CU  23064.11346209  .00025860  00000-0  13489-2 0  9993","2 55099  97.4924 125.3625 0015981   8.2023 351.9468 15.15819760  9310","2023-001CU","55099","6896.628","94.998","529.514","507.471","0"
"GENERATED VIA SPACETRACK.ORG API","18 SPCS","55099","SPACEBEE-156","PAYLOAD","U","23001CU","2023-03-06 02:29:13","817760","15.15881284","0.0015876","97.492","126.3393","4.9756","355.1632","0","999","946","0.0015894","0.00030554","0","3852534","0 SPACEBEE-156","1 55099U 23001CU  23065.10363215  .00030554  00000-0  15894-2 0  9997","2 55099  97.4920 126.3393 0015876   4.9756 355.1632 15.15881284  9463","2023-001CU","55099","6896.441","94.994","529.255","507.358","0"
"GENERATED VIA SPACETRACK.ORG API","18 SPCS","55099","SPACEBEE-156","PAYLOAD","U","23001CU","2023-03-06 02:29:13","817760","15.15881284","0.0015876","97.492","126.3393","4.9756","355.1632","0","999","946","0.0015894","0.00030554","0","3853141","0 SPACEBEE-156","1 55099U 23001CU  23065.10363215  .00030554  00000-0  15894-2 0  9997","2 55099  97.4920 126.3393 0015876   4.9756 355.1632 15.15881284  9463","2023-001CU","55099","6896.441","94.994","529.255","507.358","0"
"GENERATED VIA SPACETRACK.ORG API","18 SPCS","55099","SPACEBEE-156","PAYLOAD","U","23001CU","2023-03-07 03:50:04","134048","15.159459","0.0015778","97.4912","127.3816","1.5201","358.6076","0","999","962","0.0016194","0.00031191","0","3853534","0 SPACEBEE-156","1 55099U 23001CU  23066.15977007  .00031191  00000-0  16194-2 0  9995","2 55099  97.4912 127.3816 0015778   1.5201 358.6076 15.15945900  9628","2023-001CU","55099","6896.245","94.990","528.991","507.229","0"
"GENERATED VIA SPACETRACK.ORG API","18 SPCS","55099","SPACEBEE-156","PAYLOAD","U","23001CU","2023-03-07 03:50:04","134048","15.159459","0.0015778","97.4912","127.3816","1.5201","358.6076","0","999","962","0.0016194","0.00031191","0","3854072","0 SPACEBEE-156","1 55099U 23001CU  23066.15977007  .00031191  00000-0  16194-2 0  9995","2 55099  97.4912 127.3816 0015778   1.5201 358.6076 15.15945900  9628","2023-001CU","55099","6896.245","94.990","528.991","507.229","0"
"GENERATED VIA SPACETRACK.ORG API","18 SPCS","55099","SPACEBEE-156","PAYLOAD","U","23001CU","2023-03-08 09:55:58","979712","15.16016599","0.0015616","97.4906","128.6191","356.9348","3.1786","0","999","981","0.0014371","0.00027713","0","3854715","0 SPACEBEE-156","1 55099U 23001CU  23067.41387708  .00027713  00000-0  14371-2 0  9998","2 55099  97.4906 128.6191 0015616 356.9348   3.1786 15.16016599  9816","2023-001CU","55099","6896.031","94.986","528.665","507.127","0"
"GENERATED VIA SPACETRACK.ORG API","18 SPCS","55099","SPACEBEE-156","PAYLOAD","U","23001CU","2023-03-08 09:55:58","979712","15.16016599","0.0015616","97.4906","128.6191","356.9348","3.1786","0","999","981","0.0014371","0.00027713","0","3855077","0 SPACEBEE-156","1 55099U 23001CU  23067.41387708  .00027713  00000-0  14371-2 0  9998","2 55099  97.4906 128.6191 0015616 356.9348   3.1786 15.16016599  9816","2023-001CU","55099","6896.031","94.986","528.665","507.127","0"
"GENERATED VIA SPACETRACK.ORG API","18 SPCS","55099","SPACEBEE-156","PAYLOAD","U","23001CU","2023-03-09 03:21:28","345824","15.16060821","0.0015595","97.4901","129.3359","354.1089","5.9958","0","999","992","0.0015465","0.00029874","0","3855951","0 SPACEBEE-156","1 55099U 23001CU  23068.13991141  .00029874  00000-0  15465-2 0  9995","2 55099  97.4901 129.3359 0015595 354.1089   5.9958 15.16060821  9923","2023-001CU","55099","6895.897","94.983","528.516","507.008","0"
"GENERATED VIA SPACETRACK.ORG API","18 SPCS","55099","SPACEBEE-156","PAYLOAD","U","23001CU","2023-03-09 03:21:28","345824","15.16060821","0.0015595","97.4901","129.3359","354.1089","5.9958","0","999","992","0.0015465","0.00029874","0","3856289","0 SPACEBEE-156","1 55099U 23001CU  23068.13991141  .00029874  00000-0  15465-2 0  9995","2 55099  97.4901 129.3359 0015595 354.1089   5.9958 15.16060821  9923","2023-001CU","55099","6895.897","94.983","528.516","507.008","0"
"GENERATED VIA SPACETRACK.ORG API","18 SPCS","55099","SPACEBEE-156","PAYLOAD","U","23001CU","2023-03-10 03:07:05","329920","15.16126381","0.0015532","97.4895","130.313","350.2645","9.8284","0","999","1007","0.0015999","0.00030969","0","3856955","0 SPACEBEE-156","1 55099U 23001CU  23069.12992280  .00030969  00000-0  15999-2 0  9999","2 55099  97.4895 130.3130 0015532 350.2645   9.8284 15.16126381 10077","2023-001CU","55099","6895.698","94.979","528.273","506.853","0"
"GENERATED VIA SPACETRACK.ORG API","18 SPCS","55099","SPACEBEE-156","PAYLOAD","U","23001CU","2023-03-10 03:07:05","329920","15.16126381","0.0015532","97.4895","130.313","350.2645","9.8284","0","999","1007","0.0015999","0.00030969","0","3856975","0 SPACEBEE-156","1 55099U 23001CU  23069.12992280  .00030969  00000-0  15999-2 0  9999","2 55099  97.4895 130.3130 0015532 350.2645   9.8284 15.16126381 10077","2023-001CU","55099","6895.698","94.979","528.273","506.853","0"
"GENERATED VIA SPACETRACK.ORG API","18 SPCS","55099","SPACEBEE-156","PAYLOAD","U","23001CU","2023-03-11 09:12:47","93760","15.16204548","0.0015354","97.4892","131.5502","345.774","14.3058","0","999","1026","0.0016363","0.00031747","0","3857567","0 SPACEBEE-156","1 55099U 23001CU  23070.38387840  .00031747  00000-0  16363-2 0  9990","2 55099  97.4892 131.5502 0015354 345.7740  14.3058 15.16204548 10260","2023-001CU","55099","6895.461","94.974","527.913","506.739","0"
"GENERATED VIA SPACETRACK.ORG API","18 SPCS","55099","SPACEBEE-156","PAYLOAD","U","23001CU","2023-03-11 09:12:47","93760","15.16204548","0.0015354","97.4892","131.5502","345.774","14.3058","0","999","1026","0.0016363","0.00031747","0","3857581","0 SPACEBEE-156","1 55099U 23001CU  23070.38387840  .00031747  00000-0  16363-2 0  9990","2 55099  97.4892 131.5502 0015354 345.7740  14.3058 15.16204548 10260","2023-001CU","55099","6895.461","94.974","527.913","506.739","0"
